{
  "type": "FeatureCollection",
  "features": [
    {
      "type": "Feature",
      "properties": {
        "norad_id": 63772,
        "name": "BIOMASS",
        "group": "resource",
        "lat": -5.206197342727888,
        "lon": 175.8620371127906,
        "alt_km": 672.5285462885649,
        "timestamp": "2025-12-16T03:53:26.716915+00:00",
        "meta_object_name": "BIOMASS",
        "meta_object_id": "2025-090A",
        "meta_epoch": "2025-12-15T06:38:30.270336",
        "meta_mean_motion": 14.67532504,
        "meta_eccentricity": 0.00011842,
        "meta_inclination": 98.0695,
        "meta_ra_of_asc_node": 174.2493,
        "meta_arg_of_pericenter": 82.6411,
        "meta_mean_anomaly": 277.4928,
        "meta_ephemeris_type": 0,
        "meta_classification_type": "U",
        "meta_norad_cat_id": 63772,
        "meta_element_set_no": 999,
        "meta_rev_at_epoch": 3371,
        "meta_bstar": 0.00022306572,
        "meta_mean_motion_dot": 1.217e-05,
        "meta_mean_motion_ddot": 0,
        "tle_line1": "1 63772U 25090A   25349.27673924  .00001217  00000+0  22307-3 0  9991",
        "tle_line2": "2 63772  98.0695 174.2493 0001184  82.6411 277.4928 14.67532504 33710"
      },
      "geometry": {
        "type": "Point",
        "coordinates": [
          175.8620371127906,
          -5.206197342727888
        ]
      }
    },
    {
      "type": "Feature",
      "properties": {
        "norad_id": 64694,
        "name": "GOSAT-GW (IBUKI GW)",
        "group": "resource",
        "lat": -24.53045195742756,
        "lon": 101.91324758752869,
        "alt_km": 675.2207975354322,
        "timestamp": "2025-12-16T03:53:26.716925+00:00",
        "meta_object_name": "GOSAT-GW (IBUKI GW)",
        "meta_object_id": "2025-141A",
        "meta_epoch": "2025-12-15T07:19:29.681760",
        "meta_mean_motion": 14.67558192,
        "meta_eccentricity": 0.00016925,
        "meta_inclination": 98.0426,
        "meta_ra_of_asc_node": 284.7717,
        "meta_arg_of_pericenter": 76.3313,
        "meta_mean_anomaly": 283.808,
        "meta_ephemeris_type": 0,
        "meta_classification_type": "U",
        "meta_norad_cat_id": 64694,
        "meta_element_set_no": 999,
        "meta_rev_at_epoch": 2487,
        "meta_bstar": 0.00018953527,
        "meta_mean_motion_dot": 1.028e-05,
        "meta_mean_motion_ddot": 0,
        "tle_line1": "1 64694U 25141A   25349.30520465  .00001028  00000+0  18954-3 0  9990",
        "tle_line2": "2 64694  98.0426 284.7717 0001692  76.3313 283.8080 14.67558192 24875"
      },
      "geometry": {
        "type": "Point",
        "coordinates": [
          101.91324758752869,
          -24.53045195742756
        ]
      }
    },
    {
      "type": "Feature",
      "properties": {
        "norad_id": 64876,
        "name": "IONOSFERA-M 3",
        "group": "resource",
        "lat": -0.28243064642600324,
        "lon": -48.026099844683394,
        "alt_km": 822.5152818299748,
        "timestamp": "2025-12-16T03:53:26.716936+00:00",
        "meta_object_name": "IONOSFERA-M 3",
        "meta_object_id": "2025-155A",
        "meta_epoch": "2025-12-15T09:18:31.969728",
        "meta_mean_motion": 14.21441734,
        "meta_eccentricity": 0.00021724,
        "meta_inclination": 98.5785,
        "meta_ra_of_asc_node": 311.179,
        "meta_arg_of_pericenter": 55.9364,
        "meta_mean_anomaly": 304.2019,
        "meta_ephemeris_type": 0,
        "meta_classification_type": "U",
        "meta_norad_cat_id": 64876,
        "meta_element_set_no": 999,
        "meta_rev_at_epoch": 2029,
        "meta_bstar": 6.1766408e-05,
        "meta_mean_motion_dot": 9.2e-07,
        "meta_mean_motion_ddot": 0,
        "tle_line1": "1 64876U 25155A   25349.38787002  .00000092  00000+0  61766-4 0  9997",
        "tle_line2": "2 64876  98.5785 311.1790 0002172  55.9364 304.2019 14.21441734 20294"
      },
      "geometry": {
        "type": "Point",
        "coordinates": [
          -48.026099844683394,
          -0.28243064642600324
        ]
      }
    },
    {
      "type": "Feature",
      "properties": {
        "norad_id": 64877,
        "name": "IONOSFERA-M 4",
        "group": "resource",
        "lat": -0.6480592577905543,
        "lon": 131.75305738619684,
        "alt_km": 824.073777718193,
        "timestamp": "2025-12-16T03:53:26.716946+00:00",
        "meta_object_name": "IONOSFERA-M 4",
        "meta_object_id": "2025-155B",
        "meta_epoch": "2025-12-15T08:27:39.728160",
        "meta_mean_motion": 14.21442839,
        "meta_eccentricity": 0.00015505,
        "meta_inclination": 98.5784,
        "meta_ra_of_asc_node": 311.0643,
        "meta_arg_of_pericenter": 60.8193,
        "meta_mean_anomaly": 299.314,
        "meta_ephemeris_type": 0,
        "meta_classification_type": "U",
        "meta_norad_cat_id": 64877,
        "meta_element_set_no": 999,
        "meta_rev_at_epoch": 2028,
        "meta_bstar": 6.1657984e-05,
        "meta_mean_motion_dot": 9.2e-07,
        "meta_mean_motion_ddot": 0,
        "tle_line1": "1 64877U 25155B   25349.35254315  .00000092  00000+0  61658-4 0  9991",
        "tle_line2": "2 64877  98.5784 311.0643 0001550  60.8193 299.3140 14.21442839 20289"
      },
      "geometry": {
        "type": "Point",
        "coordinates": [
          131.75305738619684,
          -0.6480592577905543
        ]
      }
    },
    {
      "type": "Feature",
      "properties": {
        "norad_id": 64899,
        "name": "MICROCARB",
        "group": "resource",
        "lat": -57.091934464817044,
        "lon": -127.10303437349981,
        "alt_km": 664.4379708205433,
        "timestamp": "2025-12-16T03:53:26.716956+00:00",
        "meta_object_name": "MICROCARB",
        "meta_object_id": "2025-156A",
        "meta_epoch": "2025-12-15T03:58:32.903040",
        "meta_mean_motion": 14.72060751,
        "meta_eccentricity": 0.00172742,
        "meta_inclination": 98.0024,
        "meta_ra_of_asc_node": 64.4722,
        "meta_arg_of_pericenter": 137.3856,
        "meta_mean_anomaly": 222.8695,
        "meta_ephemeris_type": 0,
        "meta_classification_type": "U",
        "meta_norad_cat_id": 64899,
        "meta_element_set_no": 999,
        "meta_rev_at_epoch": 2089,
        "meta_bstar": 0.00012237756,
        "meta_mean_motion_dot": 7.21e-06,
        "meta_mean_motion_ddot": 0,
        "tle_line1": "1 64899U 25156A   25349.16565860  .00000721  00000+0  12238-3 0  9993",
        "tle_line2": "2 64899  98.0024  64.4722 0017274 137.3856 222.8695 14.72060751 20896"
      },
      "geometry": {
        "type": "Point",
        "coordinates": [
          -127.10303437349981,
          -57.091934464817044
        ]
      }
    },
    {
      "type": "Feature",
      "properties": {
        "norad_id": 64900,
        "name": "CO3D 3",
        "group": "resource",
        "lat": 28.217886604905832,
        "lon": -109.50199879175666,
        "alt_km": 503.6367325648698,
        "timestamp": "2025-12-16T03:53:26.716967+00:00",
        "meta_object_name": "CO3D 3",
        "meta_object_id": "2025-156B",
        "meta_epoch": "2025-12-13T16:46:35.865408",
        "meta_mean_motion": 15.2020033,
        "meta_eccentricity": 0.00013843,
        "meta_inclination": 97.4344,
        "meta_ra_of_asc_node": 64.0523,
        "meta_arg_of_pericenter": 93.9049,
        "meta_mean_anomaly": 266.2345,
        "meta_ephemeris_type": 0,
        "meta_classification_type": "U",
        "meta_norad_cat_id": 64900,
        "meta_element_set_no": 999,
        "meta_rev_at_epoch": 2135,
        "meta_bstar": 0.00015817929,
        "meta_mean_motion_dot": 3.358e-05,
        "meta_mean_motion_ddot": 0,
        "tle_line1": "1 64900U 25156B   25347.69902622  .00003358  00000+0  15818-3 0  9999",
        "tle_line2": "2 64900  97.4344  64.0523 0001384  93.9049 266.2345 15.20200330 21357"
      },
      "geometry": {
        "type": "Point",
        "coordinates": [
          -109.50199879175666,
          28.217886604905832
        ]
      }
    },
    {
      "type": "Feature",
      "properties": {
        "norad_id": 64901,
        "name": "CO3D 4",
        "group": "resource",
        "lat": 29.248314072850402,
        "lon": -109.32615100407945,
        "alt_km": 503.3951462156938,
        "timestamp": "2025-12-16T03:53:26.716978+00:00",
        "meta_object_name": "CO3D 4",
        "meta_object_id": "2025-156C",
        "meta_epoch": "2025-12-15T08:16:27.481728",
        "meta_mean_motion": 15.20188427,
        "meta_eccentricity": 9.214e-05,
        "meta_inclination": 97.4345,
        "meta_ra_of_asc_node": 65.6748,
        "meta_arg_of_pericenter": 187.39,
        "meta_mean_anomaly": 172.7322,
        "meta_ephemeris_type": 0,
        "meta_classification_type": "U",
        "meta_norad_cat_id": 64901,
        "meta_element_set_no": 999,
        "meta_rev_at_epoch": 2160,
        "meta_bstar": 0.00021573024,
        "meta_mean_motion_dot": 4.603e-05,
        "meta_mean_motion_ddot": 0,
        "tle_line1": "1 64901U 25156C   25349.34476252  .00004603  00000+0  21573-3 0  9998",
        "tle_line2": "2 64901  97.4345  65.6748 0000921 187.3900 172.7322 15.20188427 21601"
      },
      "geometry": {
        "type": "Point",
        "coordinates": [
          -109.32615100407945,
          29.248314072850402
        ]
      }
    }
  ]
}